TURKSAT 3A              
1 33056U 08030B   26115.78935897  .00000132  00000+0  00000+0 0  9993
2 33056   0.0717  77.8393 0005035 317.5436 144.5675  1.00273852 51830
COSMOS 2440             
1 33108U 08033A   26115.79689902 -.00000158  00000+0  00000+0 0  9997
2 33108  10.4839  41.5267 0003946 221.5512 317.8152  1.00272280 65265
SL-12 R/B(2)            
1 33111U 08033D   26114.86642112  .00000017  00000+0  00000+0 0  9993
2 33111  10.4628  41.6683 0031691 337.8813 205.8926  1.00287102 65276
INTELSAT 25 (IS-25)     
1 33153U 08034A   26113.08239256 -.00000278  00000+0  00000+0 0  9994
2 33153   2.5670  80.9425 0002165 274.6153 207.9060  0.99965107 65143
ECHOSTAR 11             
1 33207U 08035A   26115.63100219 -.00000071  00000+0  00000+0 0  9995
2 33207   0.8706  84.6796 0002450 292.1033 314.2265  1.00270994 50683
SUPERBIRD-C2            
1 33274U 08038A   26115.80790573 -.00000318  00000+0  00000+0 0  9993
2 33274   2.2278  81.8806 0004377   1.9264 196.8727  1.00272699105200
INMARSAT 4-F3           
1 33278U 08039A   26115.83286583 -.00000152  00000+0  00000+0 0  9998
2 33278   4.2499  31.4151 0003079  12.8169  11.4454  1.00271221 46021
NIMIQ 4                 
1 33373U 08044A   26115.86780985 -.00000234  00000+0  00000+0 0  9999
2 33373   0.0073 279.9811 0002226 109.7942  54.5337  1.00271560 64450
GALAXY 19 (G-19)        
1 33376U 08045A   26115.83303918 -.00000153  00000+0  00000+0 0  9997
2 33376   0.0157 249.3206 0003257 160.4396   6.9681  1.00271954 64378
ASTRA 1M                
1 33436U 08057A   26115.78485228  .00000107  00000+0  00000+0 0  9994
2 33436   0.1624  79.3258 0003750   1.4170  74.9994  1.00273939 45214
FENGYUN 2D DEB          
1 33458U 06053D   26114.85531146 -.00000007  00000+0  00000+0 0  9990
2 33458  11.5706  37.6112 0040465 359.1655 187.9603  1.00262764 64842
