[{"OBJECT_NAME":"TURKSAT 3A","OBJECT_ID":"2008-030B","EPOCH":"2026-04-25T18:56:40.615008","MEAN_MOTION":1.00273852,"ECCENTRICITY":0.0005035,"INCLINATION":0.0717,"RA_OF_ASC_NODE":77.8393,"ARG_OF_PERICENTER":317.5436,"MEAN_ANOMALY":144.5675,"EPHEMERIS_TYPE":0,"CLASSIFICATION_TYPE":"U","NORAD_CAT_ID":33056,"ELEMENT_SET_NO":999,"REV_AT_EPOCH":5183,"BSTAR":0,"MEAN_MOTION_DOT":1.32e-6,"MEAN_MOTION_DDOT":0},{"OBJECT_NAME":"COSMOS 2440","OBJECT_ID":"2008-033A","EPOCH":"2026-04-25T19:07:32.075328","MEAN_MOTION":1.0027228,"ECCENTRICITY":0.0003946,"INCLINATION":10.4839,"RA_OF_ASC_NODE":41.5267,"ARG_OF_PERICENTER":221.5512,"MEAN_ANOMALY":317.8152,"EPHEMERIS_TYPE":0,"CLASSIFICATION_TYPE":"U","NORAD_CAT_ID":33108,"ELEMENT_SET_NO":999,"REV_AT_EPOCH":6526,"BSTAR":0,"MEAN_MOTION_DOT":-1.58e-6,"MEAN_MOTION_DDOT":0},{"OBJECT_NAME":"SL-12 R/B(2)","OBJECT_ID":"2008-033D","EPOCH":"2026-04-24T20:47:38.784768","MEAN_MOTION":1.00287102,"ECCENTRICITY":0.0031691,"INCLINATION":10.4628,"RA_OF_ASC_NODE":41.6683,"ARG_OF_PERICENTER":337.8813,"MEAN_ANOMALY":205.8926,"EPHEMERIS_TYPE":0,"CLASSIFICATION_TYPE":"U","NORAD_CAT_ID":33111,"ELEMENT_SET_NO":999,"REV_AT_EPOCH":6527,"BSTAR":0,"MEAN_MOTION_DOT":1.7e-7,"MEAN_MOTION_DDOT":0},{"OBJECT_NAME":"INTELSAT 25 (IS-25)","OBJECT_ID":"2008-034A","EPOCH":"2026-04-23T01:58:38.717184","MEAN_MOTION":0.99965107,"ECCENTRICITY":0.00021655,"INCLINATION":2.567,"RA_OF_ASC_NODE":80.9425,"ARG_OF_PERICENTER":274.6153,"MEAN_ANOMALY":207.906,"EPHEMERIS_TYPE":0,"CLASSIFICATION_TYPE":"U","NORAD_CAT_ID":33153,"ELEMENT_SET_NO":999,"REV_AT_EPOCH":6514,"BSTAR":0,"MEAN_MOTION_DOT":-2.78e-6,"MEAN_MOTION_DDOT":0},{"OBJECT_NAME":"ECHOSTAR 11","OBJECT_ID":"2008-035A","EPOCH":"2026-04-25T15:08:38.589216","MEAN_MOTION":1.00270994,"ECCENTRICITY":0.000245,"INCLINATION":0.8706,"RA_OF_ASC_NODE":84.6796,"ARG_OF_PERICENTER":292.1033,"MEAN_ANOMALY":314.2265,"EPHEMERIS_TYPE":0,"CLASSIFICATION_TYPE":"U","NORAD_CAT_ID":33207,"ELEMENT_SET_NO":999,"REV_AT_EPOCH":5068,"BSTAR":0,"MEAN_MOTION_DOT":-7.1e-7,"MEAN_MOTION_DDOT":0},{"OBJECT_NAME":"SUPERBIRD-C2","OBJECT_ID":"2008-038A","EPOCH":"2026-04-25T19:23:23.055072","MEAN_MOTION":1.00272699,"ECCENTRICITY":0.0004377,"INCLINATION":2.2278,"RA_OF_ASC_NODE":81.8806,"ARG_OF_PERICENTER":1.9264,"MEAN_ANOMALY":196.8727,"EPHEMERIS_TYPE":0,"CLASSIFICATION_TYPE":"U","NORAD_CAT_ID":33274,"ELEMENT_SET_NO":999,"REV_AT_EPOCH":10520,"BSTAR":0,"MEAN_MOTION_DOT":-3.18e-6,"MEAN_MOTION_DDOT":0},{"OBJECT_NAME":"INMARSAT 4-F3","OBJECT_ID":"2008-039A","EPOCH":"2026-04-25T19:59:19.607712","MEAN_MOTION":1.00271221,"ECCENTRICITY":0.0003079,"INCLINATION":4.2499,"RA_OF_ASC_NODE":31.4151,"ARG_OF_PERICENTER":12.8169,"MEAN_ANOMALY":11.4454,"EPHEMERIS_TYPE":0,"CLASSIFICATION_TYPE":"U","NORAD_CAT_ID":33278,"ELEMENT_SET_NO":999,"REV_AT_EPOCH":4602,"BSTAR":0,"MEAN_MOTION_DOT":-1.52e-6,"MEAN_MOTION_DDOT":0},{"OBJECT_NAME":"NIMIQ 4","OBJECT_ID":"2008-044A","EPOCH":"2026-04-25T20:49:38.771040","MEAN_MOTION":1.0027156,"ECCENTRICITY":0.0002226,"INCLINATION":0.0073,"RA_OF_ASC_NODE":279.9811,"ARG_OF_PERICENTER":109.7942,"MEAN_ANOMALY":54.5337,"EPHEMERIS_TYPE":0,"CLASSIFICATION_TYPE":"U","NORAD_CAT_ID":33373,"ELEMENT_SET_NO":999,"REV_AT_EPOCH":6445,"BSTAR":0,"MEAN_MOTION_DOT":-2.34e-6,"MEAN_MOTION_DDOT":0},{"OBJECT_NAME":"GALAXY 19 (G-19)","OBJECT_ID":"2008-045A","EPOCH":"2026-04-25T19:59:34.585152","MEAN_MOTION":1.00271954,"ECCENTRICITY":0.0003257,"INCLINATION":0.0157,"RA_OF_ASC_NODE":249.3206,"ARG_OF_PERICENTER":160.4396,"MEAN_ANOMALY":6.9681,"EPHEMERIS_TYPE":0,"CLASSIFICATION_TYPE":"U","NORAD_CAT_ID":33376,"ELEMENT_SET_NO":999,"REV_AT_EPOCH":6437,"BSTAR":0,"MEAN_MOTION_DOT":-1.53e-6,"MEAN_MOTION_DDOT":0},{"OBJECT_NAME":"ASTRA 1M","OBJECT_ID":"2008-057A","EPOCH":"2026-04-25T18:50:11.236992","MEAN_MOTION":1.00273939,"ECCENTRICITY":0.000375,"INCLINATION":0.1624,"RA_OF_ASC_NODE":79.3258,"ARG_OF_PERICENTER":1.417,"MEAN_ANOMALY":74.9994,"EPHEMERIS_TYPE":0,"CLASSIFICATION_TYPE":"U","NORAD_CAT_ID":33436,"ELEMENT_SET_NO":999,"REV_AT_EPOCH":4521,"BSTAR":0,"MEAN_MOTION_DOT":1.07e-6,"MEAN_MOTION_DDOT":0},{"OBJECT_NAME":"FENGYUN 2D DEB","OBJECT_ID":"2006-053D","EPOCH":"2026-04-24T20:31:38.910144","MEAN_MOTION":1.00262764,"ECCENTRICITY":0.0040465,"INCLINATION":11.5706,"RA_OF_ASC_NODE":37.6112,"ARG_OF_PERICENTER":359.1655,"MEAN_ANOMALY":187.9603,"EPHEMERIS_TYPE":0,"CLASSIFICATION_TYPE":"U","NORAD_CAT_ID":33458,"ELEMENT_SET_NO":999,"REV_AT_EPOCH":6484,"BSTAR":0,"MEAN_MOTION_DOT":-7.0e-8,"MEAN_MOTION_DDOT":0}]
